[{"OBJECT_NAME":"CAPELLA-11 (ACADIA-1)","OBJECT_ID":"2023-126A","EPOCH":"2026-03-09T22:58:53.466528","MEAN_MOTION":14.80465178,"ECCENTRICITY":0.00027448,"INCLINATION":53.0065,"RA_OF_ASC_NODE":254.028,"ARG_OF_PERICENTER":128.81,"MEAN_ANOMALY":231.3123,"EPHEMERIS_TYPE":0,"CLASSIFICATION_TYPE":"U","NORAD_CAT_ID":57693,"ELEMENT_SET_NO":999,"REV_AT_EPOCH":13741,"BSTAR":0.00045921868,"MEAN_MOTION_DOT":3.323e-5,"MEAN_MOTION_DDOT":0},{"OBJECT_NAME":"KUIPER-00124","OBJECT_ID":"2025-228G","EPOCH":"2026-03-09T23:18:00.946656","MEAN_MOTION":14.79934755,"ECCENTRICITY":6.638e-5,"INCLINATION":51.8999,"RA_OF_ASC_NODE":354.3347,"ARG_OF_PERICENTER":93.5006,"MEAN_ANOMALY":266.6032,"EPHEMERIS_TYPE":0,"CLASSIFICATION_TYPE":"U","NORAD_CAT_ID":65953,"ELEMENT_SET_NO":999,"REV_AT_EPOCH":2334,"BSTAR":0.00014307082,"MEAN_MOTION_DOT":8.7e-6,"MEAN_MOTION_DDOT":0}]
